[{"OBJECT_NAME":"HAWK-2A","OBJECT_ID":"2021-006CW","EPOCH":"2026-03-09T16:18:25.817472","MEAN_MOTION":15.33304498,"ECCENTRICITY":0.00064498,"INCLINATION":97.2459,"RA_OF_ASC_NODE":115.6184,"ARG_OF_PERICENTER":187.1463,"MEAN_ANOMALY":172.9689,"EPHEMERIS_TYPE":0,"CLASSIFICATION_TYPE":"U","NORAD_CAT_ID":47505,"ELEMENT_SET_NO":999,"REV_AT_EPOCH":28424,"BSTAR":0.0002543136,"MEAN_MOTION_DOT":8.113e-5,"MEAN_MOTION_DDOT":0},{"OBJECT_NAME":"STARLINK-32849","OBJECT_ID":"2025-022U","EPOCH":"2026-03-09T13:04:55.223904","MEAN_MOTION":15.30188738,"ECCENTRICITY":0.00013003,"INCLINATION":53.158,"RA_OF_ASC_NODE":130.6007,"ARG_OF_PERICENTER":92.1741,"MEAN_ANOMALY":267.9408,"EPHEMERIS_TYPE":0,"CLASSIFICATION_TYPE":"U","NORAD_CAT_ID":62872,"ELEMENT_SET_NO":999,"REV_AT_EPOCH":6187,"BSTAR":0.00066320546,"MEAN_MOTION_DOT":0.00019327,"MEAN_MOTION_DDOT":0}]
